QUETZSAT 1              
1 37826U 11054A   16188.27393313 -.00000262  00000-0  00000+0 0  9992
2 37826   0.0153  12.0815 0002253  94.6343 199.5670  1.00270567 17660
INTELSAT 18 (IS-18)     
1 37834U 11056A   16188.41094968  .00000032  00000-0  00000+0 0  9997
2 37834   0.0133  49.2674 0001737  45.5128 157.9379  1.00270428 17428
EUTELSAT 16A            
1 37836U 11057A   16187.90785480  .00000084  00000-0  00000+0 0  9996
2 37836   0.0618 355.3096 0004243 108.6379 163.1962  1.00274537 17355
VIASAT-1                
1 37843U 11059A   16188.34434890 -.00000044  00000-0  00000+0 0  9998
2 37843   0.0237  29.9671 0002191  69.4910 194.1508  1.00271020 17846
ASIASAT 7               
1 37933U 11069A   16186.97479984 -.00000354  00000-0  00000+0 0  9993
2 37933   0.0192  47.8506 0001773  14.7840 317.1860  1.00269923 17030
LUCH 5A                 
1 37951U 11074B   16187.78204404 -.00000065  00000-0  00000+0 0  9991
2 37951   1.7091 211.7189 0003231 260.4999 260.5985  1.00269263 16755
NIGCOMSAT 1R            
1 38014U 11077A   16187.80291825  .00000124  00000-0  00000+0 0  9996
2 38014   0.0352 122.9284 0002776 138.4412 354.3751  1.00272963 16590
FENGYUN 2F              
1 38049U 12002A   16187.98023694 -.00000378  00000-0  00000+0 0  9991
2 38049   1.0200  76.0308 0003281 180.7695 132.4995  1.00277955 16458
SES-4                   
1 38087U 12007A   16186.28145065 -.00000188  00000-0  00000-0 0  9997
2 38087   0.0184 357.1705 0002278 114.3799 250.4817  1.00272007 15835
BEIDOU G5               
1 38091U 12008A   16188.30416981  .00000036  00000-0  00000+0 0  9996
2 38091   1.6645  48.9717 0001874 178.6447 225.3776  1.00266715 16050
INTELSAT 22 (IS-22)     
1 38098U 12011A   16187.01243190 -.00000079  00000-0  00000+0 0  9992
2 38098   0.0182  13.1717 0001913  96.1705 250.6624  1.00271948 15613
APSTAR 7                
1 38107U 12013A   16187.84871490 -.00000122  00000-0  00000+0 0  9995
2 38107   0.0318  33.3051 0002019  60.1870 212.8012  1.00271740 15736
YAHSAT 1B               
1 38245U 12016A   16188.07758209  .00000106  00000-0  00000+0 0  9990
2 38245   0.0208  31.2004 0001326  20.4080 308.4035  1.00267655 15494
JCSAT-13                
1 38331U 12023A   16187.86596592 -.00000377  00000-0  00000+0 0  9996
2 38331   0.0121  16.9634 0001350  90.8818 252.1523  1.00270635 15141
VINASAT-2               
1 38332U 12023B   16186.67915606 -.00000349  00000-0  00000+0 0  9995
2 38332   0.0114 353.5585 0001616 116.2463 189.6265  1.00271643 15173
NIMIQ 6                 
1 38342U 12026A   16187.46457627 -.00000194  00000-0  00000+0 0  9999
2 38342   0.0117  19.9698 0001653  76.2519 263.7803  1.00271908 15168
CHINASAT 2A (ZX 2A)     
1 38352U 12028A   16187.78179190 -.00000313  00000-0  00000+0 0  9996
2 38352   0.0472 193.7765 0001255 202.0359 268.0644  1.00269055 15204
INTELSAT 19 (IS-19)     
1 38356U 12030A   16186.75231094 -.00000077  00000-0  00000+0 0  9998
2 38356   0.0258 325.3013 0002720 141.7440 252.9688  1.00271812 15076
ECHOSTAR 17             
1 38551U 12035A   16187.50890194 -.00000096  00000-0  00000+0 0  9997
2 38551   0.0248  27.8950 0002131  74.4431 257.6858  1.00269899 14694
METEOSAT-10 (MSG-3)     
1 38552U 12035B   16187.21115779 -.00000024  00000-0  00000+0 0  9996
2 38552   0.5032   6.9017 0001370 199.3075 153.7676  1.00265950 14786
SES-5                   
1 38652U 12036A   16188.07689003  .00000013  00000-0  00000+0 0  9996
2 38652   0.0505 261.3850 0001528 196.7895 218.9485  1.00270445 14636
TIANLIAN 1-03           
1 38730U 12040A   16188.07714921  .00000035  00000-0  00000+0 0  9990
2 38730   0.0567 246.5392 0000238  37.9724  43.0589  0.99984967 14552
INTELSAT 20 (IS-20)     
1 38740U 12043A   16186.02501337 -.00000044  00000-0  00000+0 0  9993
2 38740   0.0226  20.9568 0000483 345.7040 353.3399  1.00270602 14381
HYLAS 2                 
1 38741U 12043B   16187.12626225  .00000134  00000-0  00000+0 0  9999
2 38741   0.0228  77.9273 0001366  42.7153 239.3545  1.00271867 14413
INTELSAT 21 (IS-21)     
1 38749U 12045A   16188.05749352 -.00000305  00000-0  00000+0 0  9990
2 38749   0.0077 341.9067 0003511 101.7195 163.5211  1.00269161 14203
ASTRA 2F                
1 38778U 12051A   16187.13410518  .00000129  00000-0  00000+0 0  9999
2 38778   0.0723 237.3400 0001837 305.7209 176.9216  1.00272494 13859
GSAT-10                 
1 38779U 12051B   16186.98215723 -.00000186  00000-0  00000+0 0  9997
2 38779   0.0493  99.6082 0001844 344.1912 276.2054  1.00272354 13854
INTELSAT 23 (IS-23)     
1 38867U 12057A   16187.19914132 -.00000305  00000-0  00000+0 0  9998
2 38867   0.0068 294.6254 0002019 168.2082 199.4686  1.00270137 13669
BEIDOU G6               
1 38953U 12059A   16188.05387666 -.00000197  00000-0  10000-3 0  9992
2 38953   0.9521  78.6001 0004690 129.2885 179.9984  1.00277096 13624
LUCH 5B                 
1 38977U 12061A   16188.34960758 -.00000152  00000-0  00000+0 0  9998
2 38977   2.8569  77.1620 0002586  37.8649 279.2238  1.00274240 13745
YAMAL 300K              
1 38978U 12061B   16188.41826179  .00000051  00000-0  00000+0 0  9992
2 38978   0.0512 183.2306 0000339  43.8106  31.3235  1.00271859 13447
STAR ONE C3             
1 38991U 12062A   16188.27176625 -.00000269  00000-0  00000+0 0  9998
2 38991   0.0222  49.7053 0001375  67.1909 190.5915  1.00267003 13423
EUTELSAT 21B            
1 38992U 12062B   16187.15232642  .00000110  00000-0  00000+0 0  9991
2 38992   0.0623 356.8095 0002088 122.4911 240.7041  1.00275717 13437
ECHOSTAR 16             
1 39008U 12065A   16188.37989241 -.00000302  00000-0  00000+0 0  9996
2 39008   0.0219  26.1052 0002737  72.5864 261.3394  1.00265960 13383
CHINASAT 12 (ZX 12)     
1 39017U 12067A   16187.21813838 -.00000227  00000-0  00000+0 0  9994
2 39017   0.0285  75.6587 0002710  30.1488 343.8459  1.00271153 13278
EUTELSAT 70B            
1 39020U 12069A   16188.01421395 -.00000064  00000-0  00000+0 0  9991
2 39020   0.0557 359.5366 0003128 143.9602 216.5075  1.00271805 13182
YAMAL 402               
1 39022U 12070A   16187.61390459  .00000065  00000-0  10000-3 0  9991
2 39022   0.0357 274.7367 0002607 191.9484  93.2289  1.00273480 13169
SKYNET 5D               
1 39034U 12075A   16188.17588750  .00000079  00000-0  00000+0 0  9994
2 39034   0.0696 345.9711 0003403 126.5251 288.1480  1.00274174 13094
MEXSAT 3                
1 39035U 12075B   16186.53293486 -.00000045  00000-0  00000-0 0  9997
2 39035   0.0315 201.9292 0001628 271.7290 246.3435  1.00271894 12722
TDRS 11                 
1 39070U 13004A   16187.60052962  .00000078  00000-0  00000+0 0  9994
2 39070   5.8227 329.1293 0008530 276.5348  83.5185  1.00278947 12556
AMAZONAS 3              
1 39078U 13006A   16187.38111835 -.00000303  00000-0  00000+0 0  9996
2 39078   0.0058 131.5863 0002071  13.4888 214.9217  1.00269933 12531
AZERSPACE 1             
1 39079U 13006B   16188.08196019  .00000112  00000-0  00000+0 0  9999
2 39079   0.0175 300.3180 0001593 185.1189 234.5606  1.00273291 12508
EUTELSAT 117 WEST A     
1 39122U 13012A   16187.53568968 -.00000033  00000-0  00000+0 0  9993
2 39122   0.0210  37.6165 0002424  67.2096 255.2008  1.00269421 12035
ANIK G1                 
1 39127U 13014A   16186.51209189 -.00000094  00000-0  00000+0 0  9991
2 39127   0.0346 280.1662 0000322 217.2708 222.5500  1.00271183 11816
CHINASAT 11 (ZX 11)     
1 39157U 13020A   16188.49842705 -.00000312  00000-0  00000+0 0  9990
2 39157   0.0274 271.0012 0000792  60.0892 231.2396  1.00272211 11729
EUTELSAT 7B             
1 39163U 13022A   16186.19550072  .00000029  00000-0  00000+0 0  9991
2 39163   0.0406 346.8870 0003740  40.6215 332.4966  1.00273588 11551
SES-6                   
1 39172U 13026A   16188.14976022 -.00000282  00000-0  00000+0 0  9991
2 39172   0.0204  25.9456 0001920  89.1914 182.8079  1.00270472 11308
IRNSS-1A                
1 39199U 13034A   16185.40009537  .00000078  00000-0  00000+0 0  9995
2 39199  28.2888 121.1502 0020272 204.0627 155.7240  1.00269562 11181
ALPHASAT                
1 39215U 13038A   16187.23055941  .00000118  00000-0  00000+0 0  9996
2 39215   1.3582  31.5581 0002171  69.6684 290.2440  1.00272130 10833
INSAT-3D                
1 39216U 13038B   16187.98203732 -.00000177  00000-0  00000+0 0  9998
2 39216   0.0336  80.6527 0000443 321.4251 317.9081  1.00272604 10879
EUTELSAT 25B            
1 39233U 13044A   16187.14159222  .00000123  00000-0  00000+0 0  9996
2 39233   0.0442  11.3809 0001519  97.7346 250.8846  1.00271895 10463
GSAT-7                  
1 39234U 13044B   16186.00963352 -.00000096  00000-0  00000+0 0  9998
2 39234   0.0658 271.3036 0008591  11.8733  76.7124  1.00271661 10451
AMOS-4                  
1 39237U 13045A   16187.03191929 -.00000014  00000-0  00000+0 0  9999
2 39237   0.0273  43.4047 0001194  66.3705 250.2377  1.00272452 10451
ASTRA 2E                
1 39285U 13056A   16187.13326493  .00000130  00000-0  00000+0 0  9999
2 39285   0.0627 328.0764 0002885 134.8659 257.0738  1.00270437 10156
SIRIUS FM-6             
1 39360U 13058A   16186.53652367 -.00000037  00000-0  00000+0 0  9997
2 39360   0.0283  32.9583 0000225 307.0286  20.0122  1.00268883  9902
RADUGA-1M 3             
1 39375U 13062A   16188.10962325 -.00000059  00000-0  00000+0 0  9995
2 39375   0.0175  73.7800 0002907  39.8638 280.3199  1.00271621  9700
SES-8                   
1 39460U 13071A   16186.94903898 -.00000290  00000-0  00000+0 0  9997
2 39460   0.0517 269.5079 0002501 193.5585 256.9455  1.00271720  9431
INMARSAT 5-F1           
1 39476U 13073A   16187.62242175  .00000007  00000-0  00000+0 0  9991
2 39476   0.0177  28.5637 0000641 247.7840 294.3569  1.00271498  9492
TKSAT-1 (TUPAC KATARI)  
1 39481U 13075A   16188.33151821 -.00000215  00000-0  00000+0 0  9997
2 39481   0.0349 173.9459 0001328 271.0320 231.9001  1.00272816  9417
